#cP2012 10 28  0  0  0.00000000     288 u+U   IGb08 FIT  TUM
## 1712      0.00000000   300.00000000 56228 0.0000000000000
+    3   J01E11E12  0  0  0  0  0  0  0  0  0  0  0  0  0  0
+          0  0  0  0  0  0  0  0  0  0  0  0  0  0  0  0  0
+          0  0  0  0  0  0  0  0  0  0  0  0  0  0  0  0  0
+          0  0  0  0  0  0  0  0  0  0  0  0  0  0  0  0  0
+          0  0  0  0  0  0  0  0  0  0  0  0  0  0  0  0  0
++         2  1  1  0  0  0  0  0  0  0  0  0  0  0  0  0  0
++         0  0  0  0  0  0  0  0  0  0  0  0  0  0  0  0  0
++         0  0  0  0  0  0  0  0  0  0  0  0  0  0  0  0  0
++         0  0  0  0  0  0  0  0  0  0  0  0  0  0  0  0  0
++         0  0  0  0  0  0  0  0  0  0  0  0  0  0  0  0  0
%c E  cc GPS ccc cccc cccc cccc cccc ccccc ccccc ccccc ccccc
%c cc cc ccc ccc cccc cccc cccc cccc ccccc ccccc ccccc ccccc
%f  1.2500000  1.025000000  0.00000000000  0.000000000000000
%f  0.0000000  0.000000000  0.00000000000  0.000000000000000
%i    0    0    0    0      0      0      0      0         0
%i    0    0    0    0      0      0      0      0         0
/* Galileo+QZSS orbits for MGEX based on CONGO+MGEX data    
/* Technische Universitaet Muenchen (TUM)                   
/* Further information: www.iapg.bv.tum.de/mgex             
/* PCV:IGS08_1645 OL/AL:FES2004  NONE     YN ORB:CoN CLK:CoN
*  2012 10 28  3 20  0.00000000
PJ01 -26848.932634  28990.001160  19797.759539    -15.830045
PE11  -3850.922355 -20251.062304 -21247.634013   1209.895130
PE12  14088.362752 -10842.511724 -23667.262279    378.936138
*  2012 10 28  3 25  0.00000000
PJ01 -26651.317347  28948.310463  20232.097417    -15.831926
PE11  -3306.161468 -19905.323874 -21662.091510   1209.919880
PE12  14691.847665 -10470.383376 -23467.109601    378.961629
*  2012 10 28  3 30  0.00000000
PJ01 -26457.389844  28899.917852  20658.055129    -15.833722
PE11  -2743.418628 -19565.822696 -22046.599333   1209.944710
PE12  15297.956376 -10115.250614 -23234.500895    378.987159
*  2012 10 28  3 35  0.00000000
PJ01 -26267.462591  28845.027950  21075.484487    -15.835603
PE11  -2163.499114 -19233.635227 -22400.626164   1209.969490
PE12  15905.388033  -9777.521017 -22969.757898    379.012701
*  2012 10 28  3 40  0.00000000
PJ01 -26081.837709  28783.857297  21484.241286    -15.837427
PE11  -1567.269867 -18909.794681 -22723.682811   1209.994260
PE12  16512.824343  -9457.529101 -22673.246771    379.038232
*  2012 10 28  3 45  0.00000000
PJ01 -25900.806518  28716.633889  21884.185274    -15.839229
PE11   -955.656751 -18595.287473 -23015.322874   1210.019060
PE12  17118.933976  -9155.535362 -22345.377598    379.063754
*  2012 10 28  3 50  0.00000000
PJ01 -25724.649094  28643.596687  22275.180143    -15.841079
PE11   -329.641584 -18291.049804 -23275.143365   1210.043850
PE12  17722.377028  -8871.725560 -21986.603813    379.089291
*  2012 10 28  3 55  0.00000000
PJ01 -25553.633858  28564.995113  22657.093506    -15.842873
PE11    309.741008 -17997.964440 -23502.785260   1210.068670
PE12  18321.809509  -8606.210279 -21597.421578    379.114797
*  2012 10 28  4  0  0.00000000
PJ01 -25388.017188  28481.088542  23029.796866    -15.844597
PE11    961.406931 -17716.857680 -23697.933991   1210.093470
PE12  18915.887853  -8359.024752 -21178.369099    379.140330
*  2012 10 28  4  5  0.00000000
PJ01 -25228.043029  28392.145752  23393.165641    -15.846447
PE11   1624.226126 -17448.496506 -23860.319888   1210.118310
PE12  19503.273422  -8130.128929 -20730.025892    379.165905
*  2012 10 28  4 10  0.00000000
PJ01 -25073.942576  28298.444417  23747.079062    -15.848324
PE11   2297.026260 -17193.585992 -23989.718528   1210.143100
PE12  20082.637016  -7919.407861 -20253.011956    379.191419
*  2012 10 28  4 15  0.00000000
PJ01 -24925.933924  28200.270517  24091.420233    -15.850042
PE11   2978.596527 -16952.766866 -24085.951068   1210.167930
PE12  20652.663331  -7726.672279 -19747.986946    379.216972
*  2012 10 28  4 20  0.00000000
PJ01 -24784.221779  28097.917792  24426.076072    -15.851907
PE11   3667.691606 -16726.613357 -24148.884478   1210.192740
PE12  21212.055380  -7551.659496 -19215.649255    379.242506
*  2012 10 28  4 25  0.00000000
PJ01 -24648.997179  27991.687165  24750.937294    -15.853769
PE11   4363.035744 -16515.631246 -24178.431728   1210.217570
PE12  21759.538861  -7394.034526 -18656.735039    379.268035
*  2012 10 28  4 30  0.00000000
PJ01 -24520.437239  27881.886157  25065.898395    -15.855520
PE11   5063.326926 -16320.256174 -24174.551904   1210.242380
PE12  22293.866434  -7253.391487 -18072.017216    379.293574
*  2012 10 28  4 35  0.00000000
PJ01 -24398.704924  27768.828298  25370.857632    -15.857337
PE11   5767.241161 -16140.852193 -24137.250271   1210.267260
PE12  22813.821929  -7129.255229 -17462.304389    379.319085
*  2012 10 28  4 40  0.00000000
PJ01 -24283.948846  27652.832528  25665.717000    -15.859175
PE11   6473.436831 -15977.710568 -24066.578261   1210.292240
PE12  23318.224425  -7021.083226 -16828.439730    379.344617
*  2012 10 28  4 45  0.00000000
PJ01 -24176.303079  27534.222593  25950.382212    -15.860935
PE11   7180.559101 -15831.048843 -23962.633404   1210.316810
PE12  23805.932227  -6928.267690 -16171.299824    379.370161
*  2012 10 28  4 50  0.00000000
PJ01 -24075.887006  27413.326436  26224.762686    -15.862777
PE11   7887.244389 -15701.010163 -23825.559198   1210.341610
PE12  24275.846705  -6850.137926 -15491.793447    379.395682
*  2012 10 28  4 55  0.00000000
PJ01 -23982.805191  27290.475585  26488.771514    -15.864605
PE11   8592.124852 -15587.662860 -23655.544908   1210.366440
PE12  24726.915980  -6785.962901 -14790.860322    379.421215
*  2012 10 28  5  0  0.00000000
PJ01 -23897.147268  27166.004533  26742.325455    -15.866389
PE11   9293.832907 -15491.000307 -23452.825308   1210.391240
PE12  25158.138466  -6734.954030 -14069.469809    379.446724
*  2012 10 28  5  5  0.00000000
PJ01 -23818.987862  27040.250125  26985.344908    -15.868238
PE11   9991.005732 -15410.941032 -23217.680361   1210.416050
PE12  25568.566219  -6696.268164 -13328.619580    379.472259
*  2012 10 28  5 10  0.00000000
PJ01 -23748.386533  26913.550930  27217.753901    -15.870072
PE11  10682.289773 -15347.329095 -22950.434832   1210.440860
PE12  25957.308125  -6669.010765 -12569.334221    379.497804
*  2012 10 28  5 15  0.00000000
PJ01 -23685.387741  26786.246629  27439.480066    -15.871865
PE11  11366.345197 -15299.934743 -22651.457845   1210.465630
PE12  26323.532873  -6652.239280 -11792.663837    379.523308
*  2012 10 28  5 20  0.00000000
PJ01 -23630.020838  26658.677389  27650.454630    -15.873698
PE11  12041.850321 -15268.455304 -22321.162374   1210.490420
PE12  26666.471741  -6644.966654 -10999.682585    379.548826
*  2012 10 28  5 25  0.00000000
PJ01 -23582.300091  26531.183244  27850.612392    -15.875536
PE11  12707.505973 -15252.516356 -21960.004677   1210.515240
PE12  26985.421157  -6646.165032 -10191.487194    379.574360
*  2012 10 28  5 30  0.00000000
PJ01 -23542.224711  26404.103482  28039.891711    -15.877281
PE11  13362.039760 -15251.673145 -21568.483671   1210.540030
PE12  27279.745035  -6654.769587  -9369.195455    379.599873
*  2012 10 28  5 35  0.00000000
PJ01 -23509.778932  26277.776025  28218.234489    -15.879102
PE11  14004.210276 -15265.412247 -21147.140243   1210.564840
PE12  27548.876891  -6669.682477  -8533.944660    379.625409
*  2012 10 28  5 40  0.00000000
PJ01 -23484.932088  26152.536831  28385.586159    -15.880925
PE11  14632.811170 -15293.153483 -20696.556510   1210.589650
PE12  27792.321704  -6689.776934  -7686.890047    379.650956
*  2012 10 28  5 45  0.00000000
PJ01 -23467.638734  26028.719272  28541.895670    -15.882671
PE11  15246.675130 -15334.252055 -20217.355016   1210.614450
PE12  28009.657548  -6713.901439  -6829.203186    379.676475
*  2012 10 28  5 50  0.00000000
PJ01 -23457.838774  25906.653550  28687.115473    -15.884519
PE11  15844.677692 -15388.000933 -19710.197880   1210.639230
PE12  28200.536959  -6740.883999  -5962.070369    379.702001
*  2012 10 28  5 55  0.00000000
PJ01 -23455.457631  25786.666096  28821.201511    -15.886392
PE11  16425.740944 -15453.633442 -19175.785880   1210.664040
PE12  28364.688054  -6769.536483  -5086.690963    379.727554
*  2012 10 28  6  0  0.00000000
PJ01 -23460.406417  25669.078994  28944.113198    -15.888177
PE11  16988.837037 -15530.326075 -18614.857492   1210.688840
PE12  28501.915389  -6798.659030  -4204.275751    379.753095
*  2012 10 28  6  5  0.00000000
PJ01 -23472.582143  25554.209372  29055.813445    -15.889979
PE11  17532.991539 -15617.201484 -18028.187883   1210.713620
PE12  28612.100553  -6827.044485  -3316.045268    379.778591
*  2012 10 28  6 10  0.00000000
PJ01 -23491.867952  25442.368894  29156.268582    -15.891795
PE11  18057.286612 -15713.331718 -17416.587814   1210.738420
PE12  28695.202496  -6853.482880  -2423.228084    379.804109
*  2012 10 28  6 15  0.00000000
PJ01 -23518.133355  25333.863143  29245.448416    -15.893564
PE11  18560.863972 -15817.741565 -16780.902562   1210.763230
PE12  28751.257592  -6876.765906  -1527.059134    379.829653
*  2012 10 28  6 20  0.00000000
PJ01 -23551.234508  25228.991099  29323.326190    -15.895368
PE11  19042.927667 -15929.412122 -16122.010728   1210.788040
PE12  28780.379440  -6895.691395   -628.777988    379.855158
*  2012 10 28  6 25  0.00000000
PJ01 -23591.014503  25128.044605  29389.878579    -15.897235
PE11  19502.746624 -16047.284496 -15440.823040   1210.812810
PE12  28782.758392  -6909.067774    270.372848    379.880650
*  2012 10 28  6 30  0.00000000
PJ01 -23637.303678  25031.307830  29445.085690    -15.899023
PE11  19939.656987 -16170.263648 -14738.281090   1210.837610
PE12  28758.660821  -6915.718486   1169.149671    379.906186
*  2012 10 28  6 35  0.00000000
PJ01 -23689.919946  24939.056766  29488.931051    -15.900843
PE11  20353.064205 -16297.222380 -14015.356044   1210.862410
PE12  28708.428132  -6914.486362   2066.309285    379.931709
EOF
